[{"OBJECT_NAME":"STARLINK-30239","OBJECT_ID":"2023-096B","EPOCH":"2026-03-09T22:00:01.999584","MEAN_MOTION":15.17291033,"ECCENTRICITY":0.00011539,"INCLINATION":42.9992,"RA_OF_ASC_NODE":221.2546,"ARG_OF_PERICENTER":297.0499,"MEAN_ANOMALY":275.4383,"EPHEMERIS_TYPE":0,"CLASSIFICATION_TYPE":"U","NORAD_CAT_ID":57291,"ELEMENT_SET_NO":999,"REV_AT_EPOCH":578,"BSTAR":0.0046931464,"MEAN_MOTION_DOT":0.00096291,"MEAN_MOTION_DDOT":0},{"OBJECT_NAME":"NOAA 16 DEB","OBJECT_ID":"2000-055RD","EPOCH":"2026-03-08T14:49:38.721792","MEAN_MOTION":15.14089507,"ECCENTRICITY":0.00084032,"INCLINATION":98.9038,"RA_OF_ASC_NODE":208.7699,"ARG_OF_PERICENTER":346.4163,"MEAN_ANOMALY":13.6837,"EPHEMERIS_TYPE":0,"CLASSIFICATION_TYPE":"U","NORAD_CAT_ID":42361,"ELEMENT_SET_NO":999,"REV_AT_EPOCH":52359,"BSTAR":0.022314151,"MEAN_MOTION_DOT":0.0043103,"MEAN_MOTION_DDOT":0}]
